HORYU-4                 
1 41340U 16012D   20126.02215815  .00000404  00000-0  23884-4 0  9994
2 41340  31.0048 248.3682 0013812  77.0767 283.1410 15.01479175231344
E-ST@R-II               
1 41459U 16025D   20126.48458556  .00001066  00000-0  57746-4 0  9999
2 41459  98.0973 234.2481 0164861 356.9243   3.0945 15.06336556220974
AAUSAT 4                
1 41460U 16025E   20126.55395937  .00001385  00000-0  71678-4 0  9996
2 41460  98.0964 236.5008 0153637 345.9135  13.7820 15.08595924221174
BEESAT-4                
1 41619U 16040W   20126.15518787  .00001106  00000-0  48629-4 0  9996
2 41619  97.3230 186.7072 0010290 341.0503  19.0350 15.23910690202802
CANX-7                  
1 41788U 16059F   20126.51919420  .00011221  00000-0  15523-2 0  9996
2 41788  98.2516 213.2889 0030517  81.7694 278.7028 14.77905095193470
RAVAN                   
1 41849U 16067B   20126.34063628 -.00000273  00000-0 -17657-4 0  9993
2 41849  97.9297 235.4727 0009562  35.3856 324.7999 14.98532508190168
CELTEE 1                
1 41850U 16067C   20126.22962303  .00000279  00000-0  29385-4 0  9995
2 41850  97.9220 233.2128 0009338  40.5038 319.6877 14.97161025190033
OPTICUBE 04             
1 41851U 16067D   20126.41996036 -.00000068  00000-0 -66170-6 0  9990
2 41851  97.9212 233.0484 0009539  40.4399 319.7529 14.96909361190048
AEROCUBE 8D             
1 41852U 16067E   20126.23501188  .00000538  00000-0  52120-4 0  9999
2 41852  97.9222 232.6939 0010349  42.7677 317.4348 14.96887377189993
AEROCUBE 8C             
1 41853U 16067F   20126.26554740 -.00000228  00000-0 -14568-4 0  9997
2 41853  97.9226 232.6340 0011029  42.3303 317.8767 14.96857447189996
PROMETHEUS 2-1          
1 41854U 16067G   20126.17740359  .00000955  00000-0  87885-4 0  9998
2 41854  97.9233 232.8458 0011178  43.7407 316.4698 14.97163103189990
PROMETHEUS 2-3          
1 41855U 16067H   20126.37863053  .00000996  00000-0  91360-4 0  9996
2 41855  97.9237 233.0802 0011370  43.3962 316.8152 14.97174138190022
INS-1B                  
1 41954U 17008G   20126.16390066  .00001103  00000-0  47448-4 0  9997
2 41954  97.3572 191.3342 0010823  94.0333 266.2142 15.24685534178773
BGUSAT                  
1 41999U 17008BD  20126.43152444  .00002132  00000-0  82297-4 0  9996
2 41999  97.3680 195.5039 0009832 101.8364 258.3979 15.27345105178387
DIDO-2                  
1 42000U 17008BE  20126.18417070  .00000766  00000-0  34075-4 0  9993
2 42000  97.3580 191.8748 0010126 109.5360 250.6972 15.24414764178175
PEASSS                  
1 42015U 17008BV  20126.12793473  .00000968  00000-0  40969-4 0  9990
2 42015  97.3602 193.3333 0007950 111.9636 248.2448 15.25528774178749
AL-FARABI 1             
1 42016U 17008BW  20126.17264548  .00001430  00000-0  57776-4 0  9991
2 42016  97.3629 194.3513 0007851 111.2884 248.9194 15.26346561178926
NAYIF-1 (EO-88)         
1 42017U 17008BX  20126.15250987  .00001299  00000-0  52695-4 0  9990
2 42017  97.3624 194.3426 0007921 110.8774 249.3313 15.26386156178940
NSIGHT                  
1 42726U 98067MF  20116.07643009  .13690248  12613-4  18337-3 0  9995
2 42726  51.6113 128.9553 0003404 226.2479 133.8270 16.49117643167130
UCLSAT                  
1 42765U 17036A   20126.13597774  .00001117  00000-0  49749-4 0  9992
2 42765  97.3047 181.5331 0011587 170.1528 189.9938 15.23437922159981
LITUANICASAT-2          
1 42768U 17036D   20126.12775498  .00001765  00000-0  75752-4 0  9997
2 42768  97.3102 181.4325 0015319 162.3585 197.8187 15.23918149159249
AALTO-1                 
1 42775U 17036L   20126.38427336  .00000720  00000-0  34647-4 0  9996
2 42775  97.3025 179.7130 0014305 164.1123 196.0565 15.21782782159125
URSA MAIOR              
1 42776U 17036M   20126.11568692  .00000708  00000-0  33961-4 0  9993
2 42776  97.3037 179.7181 0014107 164.7203 195.4463 15.21958652159097
COMPASS 2               
1 42777U 17036N   20126.14629272  .00001358  00000-0  59183-4 0  9995
2 42777  97.3092 181.8845 0012851 162.2564 197.9125 15.23799896159207
DIAMOND RED             
1 42783U 17036U   20126.37396399  .00000920  00000-0  42291-4 0  9994
2 42783  97.3048 181.0767 0012243 171.7048 188.4393 15.22761442159192
PEGASUS                 
1 42784U 17036V   20126.15248724  .00000906  00000-0  41236-4 0  9991
2 42784  97.3053 181.2559 0012111 171.4362 188.7084 15.23129771159183
DIAMOND GREEN           
1 42785U 17036W   20126.24133949  .00000928  00000-0  42617-4 0  9992
2 42785  97.3051 180.9817 0012114 172.6682 187.4734 15.22760753159162
DIAMOND BLUE            
1 42786U 17036X   20126.10912288  .00000819  00000-0  37963-4 0  9996
2 42786  97.3050 180.8488 0011942 173.2287 186.9113 15.22760563159222
NUDTSAT                 
1 42787U 17036Y   20126.57425508  .00001719  00000-0  72924-4 0  9998
2 42787  97.3120 182.9664 0009588 166.9759 193.1729 15.24398295159163
SUCHAI                  
1 42788U 17036Z   20126.12646364  .00001257  00000-0  55248-4 0  9992
2 42788  97.3060 181.7793 0011713 169.6551 190.4930 15.23664082159286
SKCUBE                  
1 42789U 17036AA  20126.16814567  .00001193  00000-0  52783-4 0  9999
2 42789  97.3055 181.6853 0011602 169.7295 190.4181 15.23513129159205
VZLUSAT-1               
1 42790U 17036AB  20126.10342128  .00001385  00000-0  59317-4 0  9997
2 42790  97.3079 182.5007 0011198 167.4629 192.6890 15.24385541159241
ROBUSTA-1B              
1 42792U 17036AD  20126.19292308  .00001163  00000-0  51275-4 0  9991
2 42792  97.3058 181.9476 0011167 169.6487 190.4982 15.23699245159230
CICERO 6                
1 42793U 17036AE  20126.16181145  .00000827  00000-0  37960-4 0  9996
2 42793  97.3035 181.3793 0010381 171.7060 188.4351 15.23076021159272
D-SAT                   
1 42794U 17036AF  20126.36503897  .00000244  00000-0  26242-4 0  9995
2 42794  97.4978 161.1464 0127144 148.2285 212.6687 14.91259478156277
CORVUS BC2              
1 42846U 17042X   20126.11921573  .00000037  00000-0  88392-5 0  9993
2 42846  97.5288  11.6173 0011093  66.4532 293.7852 14.92092416152949
CORVUS BC1              
1 42847U 17042Y   20126.38607362  .00000032  00000-0  83167-5 0  9990
2 42847  97.5290  12.0340 0010727  65.1679 295.0656 14.92193468152985
MIRATA                  
1 43015U 17073C   20126.19080104  .00000523  00000-0  45975-4 0  9999
2 43015  97.7207  40.0517 0253068 189.3919 170.2515 14.79581161132828
MAKERSAT 0              
1 43016U 17073D   20126.27499494  .00000356  00000-0  33142-4 0  9992
2 43016  97.7244  40.3207 0255832 190.0735 169.5296 14.79167253132813
ASTERIA                 
1 43020U 98067NH  20115.24608386  .13500826  12580-4  23780-3 0  9993
2 43020  51.6421 146.4962 0005584 252.9464 107.0954 16.47464318139010
DELLINGR (RBLE)         
1 43021U 98067NJ  20126.41112254  .00012001  00000-0  10357-3 0  9994
2 43021  51.6343 139.6364 0000787 316.6208  43.4727 15.69720226140107
AEROCUBE 7B (OCSD B)    
1 43042U 17071F   20125.85709438  .00003005  00000-0  75515-4 0  9998
2 43042  51.6372 280.4440 0004061 242.8759 117.1813 15.43337775135645
AEROCUBE 7C (OCSD C)    
1 43043U 17071G   20126.11875862  .00003031  00000-0  76159-4 0  9998
2 43043  51.6373 279.2061 0004268 248.7944 111.2586 15.43314404135659
CHEFSAT                 
1 43044U 17071H   20126.10867940  .00005172  00000-0  10610-3 0  9993
2 43044  51.6376 265.8918 0004121 255.7494 104.3037 15.47832172135836
ASGARDIA 1              
1 43049U 17071N   20125.85455718  .00002825  00000-0  71452-4 0  9999
2 43049  51.6383 279.7599 0001878 263.1683  96.9090 15.43370621135610
ISARA                   
1 43050U 17071P   20126.45141770  .00006614  00000-0  13752-3 0  9996
2 43050  51.6359 266.5712 0001919 268.6825  91.3943 15.46918991135842
PROPCUBE 2 (FAUNA)      
1 43052U 17071R   20125.78854159  .00003016  00000-0  74622-4 0  9992
2 43052  51.6377 278.5872 0001854 258.5507 101.5271 15.43802242135629
CORVUS BC3              
1 43118U 18004H   20126.13890816  .00000632  00000-0  29628-4 0  9999
2 43118  97.4461 196.7605 0009817 195.6180 164.4755 15.23305201128408
MICROMAS-2A             
1 43131U 18004W   20126.15095934  .00001579  00000-0  65871-4 0  9995
2 43131  97.4506 198.3526 0008774 193.1083 166.9928 15.25150586128493
SPACEBEE-4              
1 43139U 18004AE  20126.15499490  .00002129  00000-0  84655-4 0  9991
2 43139  97.4539 199.4353 0008221 192.7844 167.3187 15.26378242128555
SPACEBEE-3              
1 43140U 18004AF  20126.18970709  .00003147  00000-0  12067-3 0  9991
2 43140  97.4554 200.0890 0008047 190.4205 169.6868 15.27229352128594
SPACEBEE-2              
1 43141U 18004AG  20126.17770497  .00003310  00000-0  12567-3 0  9990
2 43141  97.4566 200.3086 0008055 189.7432 170.3652 15.27518487128602
SPACEBEE-1              
1 43142U 18004AH  20126.15526775  .00003196  00000-0  12023-3 0  9996
2 43142  97.4571 200.5214 0008055 189.4346 170.6744 15.27853113128608
CICERO 7                
1 43143U 18004AJ  20126.28464271  .00001624  00000-0  67572-4 0  9997
2 43143  97.4486 198.6766 0006733 199.9808 160.1167 15.25209474128531
GOMX-4B                 
1 43196U 18015E   20126.28578854  .00000410  00000-0  19741-4 0  9997
2 43196  97.4301 255.1688 0017345 255.1330 104.7989 15.24222767125322
GOMX-4A                 
1 43197U 18015F   20126.51181813  .00000704  00000-0  31559-4 0  9996
2 43197  97.4292 255.4684 0017417 254.9094 167.4337 15.24446712125371
1KUNS-PF                
1 43466U 98067NP  20126.24071893  .00171483  22696-4  42425-3 0  9991
2 43466  51.6249 120.0793 0005130  48.1044 312.0400 15.95571086113602
UBAKUSAT                
1 43467U 98067NQ  20126.44532979  .00024984  00000-0  17960-3 0  9991
2 43467  51.6319 142.7578 0001171  25.7974 334.3083 15.73460126113339
CUBERRT                 
1 43546U 98067NU  20126.17742787  .00009141  00000-0  72383-4 0  9998
2 43546  51.6331 143.2434 0002818 308.5697  51.5049 15.72181411103437
